[{"OBJECT_NAME":"STARLINK-2178","OBJECT_ID":"2021-017AQ","EPOCH":"2026-03-09T15:32:11.977440","MEAN_MOTION":15.30209294,"ECCENTRICITY":0.0001324,"INCLINATION":53.1605,"RA_OF_ASC_NODE":216.9357,"ARG_OF_PERICENTER":85.2685,"MEAN_ANOMALY":274.8467,"EPHEMERIS_TYPE":0,"CLASSIFICATION_TYPE":"U","NORAD_CAT_ID":47760,"ELEMENT_SET_NO":999,"REV_AT_EPOCH":27768,"BSTAR":0.00016336,"MEAN_MOTION_DOT":4.483e-5,"MEAN_MOTION_DDOT":0},{"OBJECT_NAME":"OBJECT V","OBJECT_ID":"2023-085V","EPOCH":"2026-03-09T21:44:00.165408","MEAN_MOTION":15.30745852,"ECCENTRICITY":0.00069081,"INCLINATION":97.4843,"RA_OF_ASC_NODE":179.3833,"ARG_OF_PERICENTER":71.0503,"MEAN_ANOMALY":289.1485,"EPHEMERIS_TYPE":0,"CLASSIFICATION_TYPE":"U","NORAD_CAT_ID":57023,"ELEMENT_SET_NO":999,"REV_AT_EPOCH":15149,"BSTAR":0.00067780507,"MEAN_MOTION_DOT":0.00020109,"MEAN_MOTION_DDOT":0}]
